[{"OBJECT_NAME":"OBJECT A","OBJECT_ID":"2023-085A","EPOCH":"2026-03-09T21:42:39.504096","MEAN_MOTION":15.28003151,"ECCENTRICITY":0.00073195,"INCLINATION":97.4858,"RA_OF_ASC_NODE":178.2033,"ARG_OF_PERICENTER":32.2499,"MEAN_ANOMALY":327.9186,"EPHEMERIS_TYPE":0,"CLASSIFICATION_TYPE":"U","NORAD_CAT_ID":57004,"ELEMENT_SET_NO":999,"REV_AT_EPOCH":15139,"BSTAR":0.00063583858,"MEAN_MOTION_DOT":0.0001733,"MEAN_MOTION_DDOT":0},{"OBJECT_NAME":"STARLINK-34017","OBJECT_ID":"2025-124Y","EPOCH":"2026-03-09T10:45:31.829184","MEAN_MOTION":15.27588431,"ECCENTRICITY":0.00017978,"INCLINATION":43.0014,"RA_OF_ASC_NODE":123.0579,"ARG_OF_PERICENTER":275.6137,"MEAN_ANOMALY":84.4509,"EPHEMERIS_TYPE":0,"CLASSIFICATION_TYPE":"U","NORAD_CAT_ID":64339,"ELEMENT_SET_NO":999,"REV_AT_EPOCH":4174,"BSTAR":0.00098933523,"MEAN_MOTION_DOT":0.0002707,"MEAN_MOTION_DDOT":0}]
